[Satellite]
VERSION=1.1
NAME=FLOCK 1C-1
NICKNAME=FLOCK 1C-1
TLE1=1 40027U 14033T   17186.17705566  .00000217  00000-0  29203-4 0  9994
TLE2=2 40027  97.9212  98.6490 0011622 245.4910 114.5086 14.88788453165191
